[{"OBJECT_NAME":"STARLINK-5831","OBJECT_ID":"2023-099E","EPOCH":"2026-03-09T21:19:52.169664","MEAN_MOTION":15.0252909,"ECCENTRICITY":0.00012993,"INCLINATION":43.0025,"RA_OF_ASC_NODE":248.1429,"ARG_OF_PERICENTER":271.6244,"MEAN_ANOMALY":88.4449,"EPHEMERIS_TYPE":0,"CLASSIFICATION_TYPE":"U","NORAD_CAT_ID":57332,"ELEMENT_SET_NO":999,"REV_AT_EPOCH":14614,"BSTAR":0.00013189352,"MEAN_MOTION_DOT":1.578e-5,"MEAN_MOTION_DDOT":0},{"OBJECT_NAME":"FENGYUN 1C DEB","OBJECT_ID":"1999-025DEQ","EPOCH":"2026-03-08T16:18:11.400768","MEAN_MOTION":15.03063896,"ECCENTRICITY":0.0041192,"INCLINATION":98.802,"RA_OF_ASC_NODE":149.1421,"ARG_OF_PERICENTER":81.4798,"MEAN_ANOMALY":279.1089,"EPHEMERIS_TYPE":0,"CLASSIFICATION_TYPE":"U","NORAD_CAT_ID":33655,"ELEMENT_SET_NO":999,"REV_AT_EPOCH":97846,"BSTAR":0.0032042236,"MEAN_MOTION_DOT":0.0004416,"MEAN_MOTION_DDOT":0}]
